0 THORAD DELTA 1 DEB
1 08788U 74089DQ  13282.00664597  .00000013  00000-0  44776-3 0   853
2 08788 102.4418 307.6744 0071131 339.2538 048.3447 12.39714050761152
0 THORAD DELTA 1 DEB
1 08788U 74089DQ  13284.02395927  .00000052  00000-0  73817-3 0   867
2 08788 102.4415 309.7335 0071140 335.5417 051.5960 12.39714279761400
0 THORAD DELTA 1 DEB
1 08788U 74089DQ  13286.55423088  .00000058  00000-0  78801-3 0   872
2 08788 102.4408 312.3162 0071146 330.9056 184.1560 12.39714764761716
0 THORAD DELTA 1 DEB
1 08788U 74089DQ  13288.64359940  .00000049  00000-0  72018-3 0   884
2 08788 102.4402 314.4488 0071157 327.0701 148.9844 12.39715445761978
0 THORAD DELTA 1 DEB
1 08788U 74089DQ  13290.97292159  .00000032  00000-0  58866-3 0   899
2 08788 102.4399 316.8262 0071184 322.7804 104.7418 12.39716114762269
0 THORAD DELTA 1 DEB
1 08788U 74089DQ  13293.00061818  .00000025  00000-0  53780-3 0   906
2 08788 102.4399 318.8955 0071208 319.0580 154.3366 12.39716299762512
0 THORAD DELTA 1 DEB
1 08788U 74089DQ  13295.00887921  .00000023  00000-0  52232-3 0   919
2 08788 102.4399 320.9449 0071235 315.3725 117.1904 12.39716412762763
